ORBCOMM FM05            
1 25117U 97084F   25138.71379141  .00001424  00000+0  43758-3 0  9996
2 25117  45.0133 149.5583 0001535 344.8734  15.2071 14.45857109436346
ORBCOMM FM06            
1 25118U 97084G   25138.74111807  .00001522  00000+0  46355-3 0  9998
2 25118  45.0125 149.1968 0001688 307.2954 223.1662 14.45987054437268
ORBCOMM FM07            
1 25119U 97084H   25138.44536414  .00001551  00000+0  47181-3 0  9991
2 25119  45.0120 151.3857 0002115   2.0910 357.9950 14.45978304437213
ORBCOMM FM03            
1 25158U 98007B   25139.04495721  .00001273  00000+0  49204-3 0  9991
2 25158 107.9649  75.7377 0046760 299.7475  59.9018 14.34441491420004
ORBCOMM FM04            
1 25159U 98007C   25138.82505403  .00001245  00000+0  48112-3 0  9992
2 25159 107.9637  78.4869 0042517 297.5820  62.1005 14.34693079420120
ORBCOMM FM17            
1 25413U 98046A   25138.88149915  .00000981  00000+0  39029-3 0  9999
2 25413  44.9957  35.9073 0003193  46.3150 313.7961 14.35047244398966
ORBCOMM FM18            
1 25414U 98046B   25139.18182722  .00001251  00000+0  45173-3 0  9995
2 25414  44.9939 312.6622 0005334 140.6830 219.4406 14.38492185400246
ORBCOMM FM19            
1 25415U 98046C   25138.94737275  .00001349  00000+0  48554-3 0  9992
2 25415  44.9951 315.7279 0004059 134.2203  26.5217 14.38299369399994
